ALOS (DAICHI)           
1 28931U 06002A   26045.28806516  .00001584  00000+0  27402-3 0  9999
2 28931  98.1177   1.3686 0001888  60.3382 299.8012 14.69731517 70045
H-2A R/B                
1 28932U 06002B   26045.31203732  .00008244  00000+0  41925-3 0  9991
2 28932  98.2364 190.3425 0052489 321.8877  37.8646 15.15934225 90893
RESURS-DK 1             
1 29228U 06021A   26045.12637428  .00002341  00000+0  13991-3 0  9997
2 29228  69.9340 297.9712 0004042 196.9226 163.1806 15.12606211 83964
CZ-4B R/B               
1 29507U 06046C   26045.12340879  .00005150  00000+0  26320-3 0  9996
2 29507  97.5648  90.0944 0033090 352.1224   7.9485 15.16647786 56470
CZ-2C R/B               
1 31114U 07010B   26045.26596270  .00000119  00000+0  73507-4 0  9998
2 31114  98.3971 159.7206 0058968   3.5134 356.6446 14.20237886976390
COSMO-SKYMED 1          
1 31598U 07023A   26045.26110280  .00003783  00000+0  33952-3 0  9990
2 31598  97.8853 236.1085 0001117  94.4454 265.6894 14.96344541 11400
COSMOS 2428             
1 31792U 07029A   26045.03070678  .00000285  00000+0  17850-3 0  9996
2 31792  70.9397 253.0067 0007703 303.5715  56.4670 14.12936449960751
SL-16 R/B               
1 31793U 07029B   26044.96042980  .00000192  00000+0  12443-3 0  9993
2 31793  70.9742 222.2631 0002225 282.1930 193.7320 14.14835560962018
KORONAS-FOTON           
1 33504U 09003A   26045.15858104  .00012950  00000+0  29551-3 0  9997
2 33504  82.4317 300.3292 0009091 237.8666 122.1699 15.42701903942117
CZ-2C R/B               
1 37731U 11030B   26045.04062757  .00001630  00000+0  21140-3 0  9994
2 37731  97.8503   2.7864 0054140  67.9076  22.7496 14.81127773786597
H-2A R/B                
1 38341U 12025E   26045.17010735  .00004149  00000+0  37841-3 0  9993
2 38341  98.4680  10.3456 0045461  31.4937 328.8988 14.94954890744703
SHIJIAN-16 (SJ-16)      
1 39358U 13057A   26045.29860535  .00001141  00000+0  11447-3 0  9995
2 39358  74.9704 229.3665 0016566 171.3477 188.8000 14.92253577668019
