CCSDS_OMM_VERS = 2.0
CREATION_DATE  = 
ORIGINATOR     = 

OBJECT_NAME    = ALOS (DAICHI)
OBJECT_ID      = 2006-002A
CENTER_NAME    = EARTH
REF_FRAME      = TEME
TIME_SYSTEM    = UTC
MEAN_ELEMENT_THEORY = SGP/SGP4

EPOCH          = 2026-02-14T06:54:48.829824
MEAN_MOTION    = 14.69731517
ECCENTRICITY   = .00018887
INCLINATION    = 98.1177
RA_OF_ASC_NODE = 1.3686
ARG_OF_PERICENTER = 60.3382
MEAN_ANOMALY   = 299.8012

EPHEMERIS_TYPE = 0
CLASSIFICATION_TYPE = U
NORAD_CAT_ID   = 28931
ELEMENT_SET_NO = 999
REV_AT_EPOCH   = 7004
BSTAR          = .2740231E-3
MEAN_MOTION_DOT = .1584E-4
MEAN_MOTION_DDOT = 0

CCSDS_OMM_VERS = 2.0
CREATION_DATE  = 
ORIGINATOR     = 

OBJECT_NAME    = H-2A R/B
OBJECT_ID      = 2006-002B
CENTER_NAME    = EARTH
REF_FRAME      = TEME
TIME_SYSTEM    = UTC
MEAN_ELEMENT_THEORY = SGP/SGP4

EPOCH          = 2026-02-14T07:29:20.024448
MEAN_MOTION    = 15.15934225
ECCENTRICITY   = .00524898
INCLINATION    = 98.2364
RA_OF_ASC_NODE = 190.3425
ARG_OF_PERICENTER = 321.8877
MEAN_ANOMALY   = 37.8646

EPHEMERIS_TYPE = 0
CLASSIFICATION_TYPE = U
NORAD_CAT_ID   = 28932
ELEMENT_SET_NO = 999
REV_AT_EPOCH   = 9089
BSTAR          = .41925237E-3
MEAN_MOTION_DOT = .8244E-4
MEAN_MOTION_DDOT = 0

CCSDS_OMM_VERS = 2.0
CREATION_DATE  = 
ORIGINATOR     = 

OBJECT_NAME    = RESURS-DK 1
OBJECT_ID      = 2006-021A
CENTER_NAME    = EARTH
REF_FRAME      = TEME
TIME_SYSTEM    = UTC
MEAN_ELEMENT_THEORY = SGP/SGP4

EPOCH          = 2026-02-14T03:01:58.737792
MEAN_MOTION    = 15.12606211
ECCENTRICITY   = .00040427
INCLINATION    = 69.9340
RA_OF_ASC_NODE = 297.9712
ARG_OF_PERICENTER = 196.9226
MEAN_ANOMALY   = 163.1806

EPHEMERIS_TYPE = 0
CLASSIFICATION_TYPE = U
NORAD_CAT_ID   = 29228
ELEMENT_SET_NO = 999
REV_AT_EPOCH   = 8396
BSTAR          = .13990534E-3
MEAN_MOTION_DOT = .2341E-4
MEAN_MOTION_DDOT = 0

CCSDS_OMM_VERS = 2.0
CREATION_DATE  = 
ORIGINATOR     = 

OBJECT_NAME    = CZ-4B R/B
OBJECT_ID      = 2006-046C
CENTER_NAME    = EARTH
REF_FRAME      = TEME
TIME_SYSTEM    = UTC
MEAN_ELEMENT_THEORY = SGP/SGP4

EPOCH          = 2026-02-14T02:57:42.519456
MEAN_MOTION    = 15.16647786
ECCENTRICITY   = .00330902
INCLINATION    = 97.5648
RA_OF_ASC_NODE = 90.0944
ARG_OF_PERICENTER = 352.1224
MEAN_ANOMALY   = 7.9485

EPHEMERIS_TYPE = 0
CLASSIFICATION_TYPE = U
NORAD_CAT_ID   = 29507
ELEMENT_SET_NO = 999
REV_AT_EPOCH   = 5647
BSTAR          = .26320132E-3
MEAN_MOTION_DOT = .515E-4
MEAN_MOTION_DDOT = 0

CCSDS_OMM_VERS = 2.0
CREATION_DATE  = 
ORIGINATOR     = 

OBJECT_NAME    = CZ-2C R/B
OBJECT_ID      = 2007-010B
CENTER_NAME    = EARTH
REF_FRAME      = TEME
TIME_SYSTEM    = UTC
MEAN_ELEMENT_THEORY = SGP/SGP4

EPOCH          = 2026-02-14T06:22:59.177280
MEAN_MOTION    = 14.20237886
ECCENTRICITY   = .00589682
INCLINATION    = 98.3971
RA_OF_ASC_NODE = 159.7206
ARG_OF_PERICENTER = 3.5134
MEAN_ANOMALY   = 356.6446

EPHEMERIS_TYPE = 0
CLASSIFICATION_TYPE = U
NORAD_CAT_ID   = 31114
ELEMENT_SET_NO = 999
REV_AT_EPOCH   = 97639
BSTAR          = .73506529E-4
MEAN_MOTION_DOT = .119E-5
MEAN_MOTION_DDOT = 0

CCSDS_OMM_VERS = 2.0
CREATION_DATE  = 
ORIGINATOR     = 

OBJECT_NAME    = COSMO-SKYMED 1
OBJECT_ID      = 2007-023A
CENTER_NAME    = EARTH
REF_FRAME      = TEME
TIME_SYSTEM    = UTC
MEAN_ELEMENT_THEORY = SGP/SGP4

EPOCH          = 2026-02-14T06:15:59.281920
MEAN_MOTION    = 14.96344541
ECCENTRICITY   = .00011176
INCLINATION    = 97.8853
RA_OF_ASC_NODE = 236.1085
ARG_OF_PERICENTER = 94.4454
MEAN_ANOMALY   = 265.6894

EPHEMERIS_TYPE = 0
CLASSIFICATION_TYPE = U
NORAD_CAT_ID   = 31598
ELEMENT_SET_NO = 999
REV_AT_EPOCH   = 1140
BSTAR          = .3395197E-3
MEAN_MOTION_DOT = .3783E-4
MEAN_MOTION_DDOT = 0

CCSDS_OMM_VERS = 2.0
CREATION_DATE  = 
ORIGINATOR     = 

OBJECT_NAME    = COSMOS 2428
OBJECT_ID      = 2007-029A
CENTER_NAME    = EARTH
REF_FRAME      = TEME
TIME_SYSTEM    = UTC
MEAN_ELEMENT_THEORY = SGP/SGP4

EPOCH          = 2026-02-14T00:44:13.065792
MEAN_MOTION    = 14.12936449
ECCENTRICITY   = .00077037
INCLINATION    = 70.9397
RA_OF_ASC_NODE = 253.0067
ARG_OF_PERICENTER = 303.5715
MEAN_ANOMALY   = 56.4670

EPHEMERIS_TYPE = 0
CLASSIFICATION_TYPE = U
NORAD_CAT_ID   = 31792
ELEMENT_SET_NO = 999
REV_AT_EPOCH   = 96075
BSTAR          = .17850309E-3
MEAN_MOTION_DOT = .285E-5
MEAN_MOTION_DDOT = 0

CCSDS_OMM_VERS = 2.0
CREATION_DATE  = 
ORIGINATOR     = 

OBJECT_NAME    = SL-16 R/B
OBJECT_ID      = 2007-029B
CENTER_NAME    = EARTH
REF_FRAME      = TEME
TIME_SYSTEM    = UTC
MEAN_ELEMENT_THEORY = SGP/SGP4

EPOCH          = 2026-02-13T23:03:01.134720
MEAN_MOTION    = 14.14835560
ECCENTRICITY   = .00022257
INCLINATION    = 70.9742
RA_OF_ASC_NODE = 222.2631
ARG_OF_PERICENTER = 282.1930
MEAN_ANOMALY   = 193.7320

EPHEMERIS_TYPE = 0
CLASSIFICATION_TYPE = U
NORAD_CAT_ID   = 31793
ELEMENT_SET_NO = 999
REV_AT_EPOCH   = 96201
BSTAR          = .12442653E-3
MEAN_MOTION_DOT = .192E-5
MEAN_MOTION_DDOT = 0

CCSDS_OMM_VERS = 2.0
CREATION_DATE  = 
ORIGINATOR     = 

OBJECT_NAME    = KORONAS-FOTON
OBJECT_ID      = 2009-003A
CENTER_NAME    = EARTH
REF_FRAME      = TEME
TIME_SYSTEM    = UTC
MEAN_ELEMENT_THEORY = SGP/SGP4

EPOCH          = 2026-02-14T03:48:21.401856
MEAN_MOTION    = 15.42701903
ECCENTRICITY   = .00090912
INCLINATION    = 82.4317
RA_OF_ASC_NODE = 300.3292
ARG_OF_PERICENTER = 237.8666
MEAN_ANOMALY   = 122.1699

EPHEMERIS_TYPE = 0
CLASSIFICATION_TYPE = U
NORAD_CAT_ID   = 33504
ELEMENT_SET_NO = 999
REV_AT_EPOCH   = 94211
BSTAR          = .29551304E-3
MEAN_MOTION_DOT = .1295E-3
MEAN_MOTION_DDOT = 0

CCSDS_OMM_VERS = 2.0
CREATION_DATE  = 
ORIGINATOR     = 

OBJECT_NAME    = CZ-2C R/B
OBJECT_ID      = 2011-030B
CENTER_NAME    = EARTH
REF_FRAME      = TEME
TIME_SYSTEM    = UTC
MEAN_ELEMENT_THEORY = SGP/SGP4

EPOCH          = 2026-02-14T00:58:30.222048
MEAN_MOTION    = 14.81127773
ECCENTRICITY   = .00541403
INCLINATION    = 97.8503
RA_OF_ASC_NODE = 2.7864
ARG_OF_PERICENTER = 67.9076
MEAN_ANOMALY   = 22.7496

EPHEMERIS_TYPE = 0
CLASSIFICATION_TYPE = U
NORAD_CAT_ID   = 37731
ELEMENT_SET_NO = 999
REV_AT_EPOCH   = 78659
BSTAR          = .21140442E-3
MEAN_MOTION_DOT = .163E-4
MEAN_MOTION_DDOT = 0

CCSDS_OMM_VERS = 2.0
CREATION_DATE  = 
ORIGINATOR     = 

OBJECT_NAME    = H-2A R/B
OBJECT_ID      = 2012-025E
CENTER_NAME    = EARTH
REF_FRAME      = TEME
TIME_SYSTEM    = UTC
MEAN_ELEMENT_THEORY = SGP/SGP4

EPOCH          = 2026-02-14T04:04:57.275040
MEAN_MOTION    = 14.94954890
ECCENTRICITY   = .00454614
INCLINATION    = 98.4680
RA_OF_ASC_NODE = 10.3456
ARG_OF_PERICENTER = 31.4937
MEAN_ANOMALY   = 328.8988

EPHEMERIS_TYPE = 0
CLASSIFICATION_TYPE = U
NORAD_CAT_ID   = 38341
ELEMENT_SET_NO = 999
REV_AT_EPOCH   = 74470
BSTAR          = .37840815E-3
MEAN_MOTION_DOT = .4149E-4
MEAN_MOTION_DDOT = 0

CCSDS_OMM_VERS = 2.0
CREATION_DATE  = 
ORIGINATOR     = 

OBJECT_NAME    = SHIJIAN-16 (SJ-16)
OBJECT_ID      = 2013-057A
CENTER_NAME    = EARTH
REF_FRAME      = TEME
TIME_SYSTEM    = UTC
MEAN_ELEMENT_THEORY = SGP/SGP4

EPOCH          = 2026-02-14T07:09:59.502240
MEAN_MOTION    = 14.92253577
ECCENTRICITY   = .00165661
INCLINATION    = 74.9704
RA_OF_ASC_NODE = 229.3665
ARG_OF_PERICENTER = 171.3477
MEAN_ANOMALY   = 188.8000

EPHEMERIS_TYPE = 0
CLASSIFICATION_TYPE = U
NORAD_CAT_ID   = 39358
ELEMENT_SET_NO = 999
REV_AT_EPOCH   = 66801
BSTAR          = .11446759E-3
MEAN_MOTION_DOT = .1141E-4
MEAN_MOTION_DDOT = 0

